NORAD_CAT_ID,OBJECT_NAME,OBJECT_TYPE,EPOCH,MEAN_MOTION,ECCENTRICITY,INCLINATION,RA_OF_ASC_NODE,ARG_OF_PERICENTER,MEAN_ANOMALY,BSTAR,MEAN_MOTION_DOT,MEAN_MOTION_DDOT,TLE_LINE0,TLE_LINE1,TLE_LINE2,SEMIMAJOR_AXIS,PERIOD,APOGEE,PERIGEE,DECAYED
50168.0,STARLINK-3296,PAYLOAD,2024-02-17 08:34:28,15.08853525,0.0001604,53.2189,22.0698,100.2192,259.8982,0.00047857,7.339e-05,0.0,0 STARLINK-3296,1 50168U 21125N   24048.35727989  .00007339  00000-0  47857-3 0  9995,2 50168  53.2189  22.0698 0001604 100.2192 259.8982 15.08853525123172,6917.839,95.437,540.814,538.594,0.0
50168.0,STARLINK-3296,PAYLOAD,2024-02-17 22:52:57,15.08835574,0.0001554,53.2183,19.3954,99.7903,260.3265,-7.0965e-05,-1.417e-05,0.0,0 STARLINK-3296,1 50168U 21125N   24048.95344443 -.00001417  00000-0 -70965-4 0  9991,2 50168  53.2183  19.3954 0001554  99.7903 260.3265 15.08835574123261,6917.894,95.438,540.834,538.684,0.0
50168.0,STARLINK-3296,PAYLOAD,2024-02-18 03:39:07,15.08838537,0.0001737,53.2188,18.5037,104.4055,255.713,4.7861e-05,4.74e-06,0.0,0 STARLINK-3296,1 50168U 21125N   24049.15216559  .00000474  00000-0  47861-4 0  9999,2 50168  53.2188  18.5037 0001737 104.4055 255.7130 15.08838537120206,6917.885,95.438,540.951,538.548,0.0
50168.0,STARLINK-3296,PAYLOAD,2024-02-18 14:46:48,15.08846811,0.0001455,53.2176,16.4194,92.7738,267.3421,0.0003975,6.045e-05,0.0,0 STARLINK-3296,1 50168U 21125N   24049.61584416  .00006045  00000-0  39750-3 0  9997,2 50168  53.2176  16.4194 0001455  92.7738 267.3421 15.08846811123364,6917.86,95.437,540.731,538.718,0.0
50168.0,STARLINK-3296,PAYLOAD,2024-02-18 21:08:21,15.08844497,0.00017,53.2187,15.2311,91.6778,268.4409,0.00030323,4.542e-05,0.0,0 STARLINK-3296,1 50168U 21125N   24049.88080526  .00004542  00000-0  30323-3 0  9996,2 50168  53.2187  15.2311 0001700  91.6778 268.4409 15.08844497123400,6917.867,95.437,540.908,538.556,0.0
50168.0,STARLINK-3296,PAYLOAD,2024-02-19 06:40:40,15.08849049,0.0001658,53.2181,13.4456,89.7153,270.4029,0.00032281,4.854e-05,0.0,0 STARLINK-3296,1 50168U 21125N   24050.27824291  .00004854  00000-0  32281-3 0  9997,2 50168  53.2181  13.4456 0001658  89.7153 270.4029 15.08849049120373,6917.853,95.437,540.865,538.571,0.0
50168.0,STARLINK-3296,PAYLOAD,2024-02-19 14:37:36,15.08839653,0.0001558,53.2183,11.9589,84.686,275.4309,0.0001352,1.864e-05,0.0,0 STARLINK-3296,1 50168U 21125N   24050.60944651  .00001864  00000-0  13520-3 0  9990,2 50168  53.2183  11.9589 0001558  84.6860 275.4309 15.08839653123518,6917.881,95.438,540.824,538.669,0.0
50168.0,STARLINK-3296,PAYLOAD,2024-02-20 03:20:41,15.08828626,0.0001247,53.2178,9.5798,85.4436,274.6699,-5.0982e-05,-1.099e-05,0.0,0 STARLINK-3296,1 50168U 21125N   24051.13937277 -.00001099  00000-0 -50982-4 0  9991,2 50168  53.2178   9.5798 0001247  85.4436 274.6699 15.08828626120507,6917.915,95.438,540.643,538.917,0.0
50168.0,STARLINK-3296,PAYLOAD,2024-02-20 14:28:23,15.08842763,0.0001477,53.2176,7.499,84.5291,275.5869,0.00019284,2.783e-05,0.0,0 STARLINK-3296,1 50168U 21125N   24051.60304968  .00002783  00000-0  19284-3 0  9996,2 50168  53.2176   7.4990 0001477  84.5291 275.5869 15.08842763123667,6917.872,95.437,540.759,538.715,0.0
50168.0,STARLINK-3296,PAYLOAD,2024-02-21 14:19:10,15.08843716,0.0001854,53.2169,3.0402,69.9954,290.1238,0.00016221,2.295e-05,0.0,0 STARLINK-3296,1 50168U 21125N   24052.59665055  .00002295  00000-0  16221-3 0  9998,2 50168  53.2169   3.0402 0001854  69.9954 290.1238 15.08843716123810,6917.869,95.437,541.017,538.451,0.0
50168.0,STARLINK-3296,PAYLOAD,2024-02-22 06:13:01,15.08841239,0.000146,53.2189,0.0623,103.4956,256.6199,0.00010176,1.332e-05,0.0,0 STARLINK-3296,1 50168U 21125N   24053.25905056  .00001332  00000-0  10176-3 0  9994,2 50168  53.2189   0.0623 0001460 103.4956 256.6199 15.08841239123915,6917.877,95.437,540.752,538.732,0.0
50168.0,STARLINK-3296,PAYLOAD,2024-02-23 06:03:48,15.08852505,0.0001539,53.2192,355.6002,113.9839,246.1314,0.00014526,2.025e-05,0.0,0 STARLINK-3296,1 50168U 21125N   24054.25264380  .00002025  00000-0  14526-3 0  9996,2 50168  53.2192 355.6002 0001539 113.9839 246.1314 15.08852505124060,6917.842,95.437,540.772,538.643,0.0
50168.0,STARLINK-3296,PAYLOAD,2024-02-23 20:22:17,15.08839733,0.000131,53.2191,352.9244,107.6192,252.4944,0.00013881,1.922e-05,0.0,0 STARLINK-3296,1 50168U 21125N   24054.84881160  .00001922  00000-0  13881-3 0  9990,2 50168  53.2191 352.9244 0001310 107.6192 252.4944 15.08839733121060,6917.881,95.438,540.652,538.84,0.0
50168.0,STARLINK-3296,PAYLOAD,2024-02-24 12:16:08,15.08839388,0.0001314,53.2188,349.9536,87.1966,272.9177,7.5024e-05,9.06e-06,0.0,0 STARLINK-3296,1 50168U 21125N   24055.51121355  .00000906  00000-0  75024-4 0  9997,2 50168  53.2188 349.9536 0001314  87.1966 272.9177 15.08839388124256,6917.882,95.438,540.656,538.838,0.0
50168.0,STARLINK-3296,PAYLOAD,2024-02-24 18:37:41,15.0883635,0.0001423,53.2193,348.7679,95.1898,264.9257,6.2121e-05,7.01e-06,0.0,0 STARLINK-3296,1 50168U 21125N   24055.77617626  .00000701  00000-0  62121-4 0  9993,2 50168  53.2193 348.7679 0001423  95.1898 264.9257 15.08836350124291,6917.892,95.438,540.741,538.772,0.0
50168.0,STARLINK-3296,PAYLOAD,2024-02-25 12:06:56,15.0884383,0.0002414,53.218,345.4939,76.4885,283.6376,0.0002032,2.947e-05,0.0,0 STARLINK-3296,1 50168U 21125N   24056.50481637  .00002947  00000-0  20320-3 0  9994,2 50168  53.2180 345.4939 0002414  76.4885 283.6376 15.08843830124403,6917.869,95.437,541.404,538.064,0.0
50168.0,STARLINK-3296,PAYLOAD,2024-02-26 04:00:46,15.08855931,0.0001374,53.2187,342.5239,98.3931,261.7217,0.00034263,5.172e-05,0.0,0 STARLINK-3296,1 50168U 21125N   24057.16720569  .00005172  00000-0  34263-3 0  9991,2 50168  53.2187 342.5239 0001374  98.3931 261.7217 15.08855931121414,6917.832,95.437,540.647,538.746,0.0
50168.0,STARLINK-3296,PAYLOAD,2024-02-26 18:19:15,15.08834897,0.0001474,53.2165,339.8449,73.7882,286.3273,-5.9478e-05,-1.234e-05,0.0,0 STARLINK-3296,1 50168U 21125N   24057.76337799 -.00001234  00000-0 -59478-4 0  9999,2 50168  53.2165 339.8449 0001474  73.7882 286.3273 15.08834897121508,6917.896,95.438,540.781,538.741,0.0
50168.0,STARLINK-3296,PAYLOAD,2024-02-27 03:51:34,15.08846682,0.0001798,53.2176,338.0604,89.221,270.8988,9.1413e-05,1.167e-05,0.0,0 STARLINK-3296,1 50168U 21125N   24058.16081196  .00001167  00000-0  91413-4 0  9999,2 50168  53.2176 338.0604 0001798  89.2210 270.8988 15.08846682121562,6917.86,95.437,540.969,538.481,0.0
50168.0,STARLINK-3296,PAYLOAD,2024-02-27 18:10:02,15.08834457,0.0001459,53.218,335.3846,107.9761,252.139,-2.8926e-05,-7.48e-06,0.0,0 STARLINK-3296,1 50168U 21125N   24058.75697748 -.00000748  00000-0 -28926-4 0  9995,2 50168  53.2180 335.3846 0001459 107.9761 252.1390 15.08834457121655,6917.897,95.438,540.772,538.753,0.0
50168.0,STARLINK-3296,PAYLOAD,2024-02-28 11:39:17,15.0883827,0.0001354,53.2163,332.1149,88.0791,272.0356,-2.8283e-05,-7.38e-06,0.0,0 STARLINK-3296,1 50168U 21125N   24059.48561793 -.00000738  00000-0 -28283-4 0  9991,2 50168  53.2163 332.1149 0001354  88.0791 272.0356 15.08838270124858,6917.886,95.438,540.687,538.814,0.0
50168.0,STARLINK-3296,PAYLOAD,2024-02-28 22:46:59,15.08836648,0.0001311,53.2162,330.0332,85.9028,274.2114,0.00012118,1.641e-05,0.0,0 STARLINK-3296,1 50168U 21125N   24059.94930199  .00001641  00000-0  12118-3 0  9993,2 50168  53.2162 330.0332 0001311  85.9028 274.2114 15.08836648124921,6917.891,95.438,540.663,538.849,0.0
50168.0,STARLINK-3296,PAYLOAD,2024-02-29 03:33:08,15.08841242,0.0001394,53.2174,329.1378,102.3723,257.7426,0.0001129,1.509e-05,0.0,0 STARLINK-3296,1 50168U 21125N   24060.14801842  .00001509  00000-0  11290-3 0  9992,2 50168  53.2174 329.1378 0001394 102.3723 257.7426 15.08841242121868,6917.877,95.437,540.706,538.777,0.0
50168.0,STARLINK-3296,PAYLOAD,2024-02-29 22:37:46,15.08847523,0.0001624,53.2186,325.572,113.4348,246.6815,0.00012565,1.713e-05,0.0,0 STARLINK-3296,1 50168U 21125N   24060.94289433  .00001713  00000-0  12565-3 0  9999,2 50168  53.2186 325.5720 0001624 113.4348 246.6815 15.08847523125078,6917.857,95.437,540.846,538.599,0.0
50168.0,STARLINK-3296,PAYLOAD,2024-03-01 03:23:55,15.08847338,0.0001603,53.2184,324.6765,111.0493,249.0671,0.00025571,3.785e-05,0.0,0 STARLINK-3296,1 50168U 21125N   24061.14161628  .00003785  00000-0  25571-3 0  9999,2 50168  53.2184 324.6765 0001603 111.0493 249.0671 15.08847338125102,6917.858,95.437,540.832,538.614,0.0
50168.0,STARLINK-3296,PAYLOAD,2024-03-01 20:53:10,15.08839483,0.0001475,53.2169,321.4021,110.3908,249.7243,6.2901e-05,7.13e-06,0.0,0 STARLINK-3296,1 50168U 21125N   24061.87025969  .00000713  00000-0  62901-4 0  9993,2 50168  53.2169 321.4021 0001475 110.3908 249.7243 15.08839483122128,6917.882,95.438,540.767,538.727,0.0
50168.0,STARLINK-3296,PAYLOAD,2024-03-01 22:28:33,15.08839424,0.0001506,53.2171,321.1045,118.3662,241.7483,5.2871e-05,5.54e-06,0.0,0 STARLINK-3296,1 50168U 21125N   24061.93649912  .00000554  00000-0  52871-4 0  9998,2 50168  53.2171 321.1045 0001506 118.3662 241.7483 15.08839424125221,6917.882,95.438,540.789,538.705,0.0
50168.0,STARLINK-3296,PAYLOAD,2024-03-02 00:03:56,15.08838563,0.0001387,53.2184,320.807,105.1805,254.934,8.1513e-05,1.01e-05,0.0,0 STARLINK-3296,1 50168U 21125N   24062.00274144  .00001010  00000-0  81513-4 0  9991,2 50168  53.2184 320.8070 0001387 105.1805 254.9340 15.08838563125231,6917.885,95.438,540.709,538.79,0.0
50168.0,STARLINK-3296,PAYLOAD,2024-03-02 22:19:20,15.08847602,0.0001462,53.218,316.6438,118.2269,241.8871,-1.4116e-05,-5.13e-06,0.0,0 STARLINK-3296,1 50168U 21125N   24062.93009726 -.00000513  00000-0 -14116-4 0  9999,2 50168  53.2180 316.6438 0001462 118.2269 241.8871 15.08847602125374,6917.857,95.437,540.734,538.711,0.0
50168.0,STARLINK-3296,PAYLOAD,2024-03-02 23:54:43,15.08848263,0.0001385,53.2182,316.3468,111.5293,248.5846,-1.2479e-05,-4.87e-06,0.0,0 STARLINK-3296,1 50168U 21125N   24062.99633686 -.00000487  00000-0 -12479-4 0  9993,2 50168  53.2182 316.3468 0001385 111.5293 248.5846 15.08848263122291,6917.855,95.437,540.678,538.762,0.0
